COSMOS 2242             
1 22626U 93024A   26077.92963009  .00001859  00000+0  16075-3 0  9990
2 22626  82.5152 257.8758 0014920 275.0046  84.9473 14.96586879781773
SL-16 R/B               
1 22803U 93059B   26077.93479172  .00000241  00000+0  14295-3 0  9995
2 22803  70.9931 351.6317 0017999 203.0509 156.9809 14.17233272680842
ARIANE 40 R/B           
1 22830U 93061H   26077.91618588  .00000184  00000+0  83339-4 0  9994
2 22830  98.4898 146.6210 0009625 254.5218 105.4903 14.32865674695426
COSMOS 2278             
1 23087U 94023A   26077.65032749 -.00000152  00000+0 -54533-4 0  9999
2 23087  71.0542 156.3525 0008662 357.7046   2.4035 14.14379000646078
SL-16 R/B               
1 23088U 94023B   26077.90485942 -.00000017  00000+0  15631-4 0  9990
2 23088  70.9992  51.5324 0005528 276.5910  83.4583 14.15010061647398
SL-16 R/B               
1 23343U 94074B   26077.87774630  .00000411  00000+0  61662-4 0  9993
2 23343  97.7096 108.3231 0006501 178.6423 355.0685 14.79418402688606
SL-16 R/B               
1 23405U 94077B   26077.95355882  .00000311  00000+0  18334-3 0  9994
2 23405  70.9850 333.0014 0002557 201.1657 158.9360 14.15565276617547
ARIANE 40+ R/B          
1 23561U 95021B   26077.94236715  .00000249  00000+0  93133-4 0  9990
2 23561  98.4480 149.2989 0007924 112.3172  60.9672 14.39778900620571
SL-16 R/B               
1 23705U 95058B   26077.96098839  .00000075  00000+0  62413-4 0  9999
2 23705  71.0221 160.7913 0010326 108.9416 251.2827 14.15500522569169
SL-16 R/B               
1 24298U 96051B   26077.94782612  .00000093  00000+0  76812-4 0  9996
2 24298  70.7598 155.6444 0014292 133.5293 226.7017 14.12418102522958
ORBVIEW 2 (SEASTAR)     
1 24883U 97037A   26077.89734695  .00000223  00000+0  93737-4 0  9993
2 24883  98.8583 242.4538 0002822  52.7185 307.4257 14.35501319509798
SL-16 R/B               
1 25400U 98043G   26077.43184434  .00000054  00000+0  41474-4 0  9990
2 25400  98.8269  30.8579 0009760 355.6941   4.4153 14.26051804440233
