CCSDS_OMM_VERS = 2.0
CREATION_DATE  = 
ORIGINATOR     = 

OBJECT_NAME    = COSMOS 2242
OBJECT_ID      = 1993-024A
CENTER_NAME    = EARTH
REF_FRAME      = TEME
TIME_SYSTEM    = UTC
MEAN_ELEMENT_THEORY = SGP/SGP4

EPOCH          = 2026-03-18T22:18:40.039776
MEAN_MOTION    = 14.96586879
ECCENTRICITY   = .00149206
INCLINATION    = 82.5152
RA_OF_ASC_NODE = 257.8758
ARG_OF_PERICENTER = 275.0046
MEAN_ANOMALY   = 84.9473

EPHEMERIS_TYPE = 0
CLASSIFICATION_TYPE = U
NORAD_CAT_ID   = 22626
ELEMENT_SET_NO = 999
REV_AT_EPOCH   = 78177
BSTAR          = .16074949E-3
MEAN_MOTION_DOT = .1859E-4
MEAN_MOTION_DDOT = 0

CCSDS_OMM_VERS = 2.0
CREATION_DATE  = 
ORIGINATOR     = 

OBJECT_NAME    = SL-16 R/B
OBJECT_ID      = 1993-059B
CENTER_NAME    = EARTH
REF_FRAME      = TEME
TIME_SYSTEM    = UTC
MEAN_ELEMENT_THEORY = SGP/SGP4

EPOCH          = 2026-03-18T22:26:06.004608
MEAN_MOTION    = 14.17233272
ECCENTRICITY   = .00179991
INCLINATION    = 70.9931
RA_OF_ASC_NODE = 351.6317
ARG_OF_PERICENTER = 203.0509
MEAN_ANOMALY   = 156.9809

EPHEMERIS_TYPE = 0
CLASSIFICATION_TYPE = U
NORAD_CAT_ID   = 22803
ELEMENT_SET_NO = 999
REV_AT_EPOCH   = 68084
BSTAR          = .14295341E-3
MEAN_MOTION_DOT = .241E-5
MEAN_MOTION_DDOT = 0

CCSDS_OMM_VERS = 2.0
CREATION_DATE  = 
ORIGINATOR     = 

OBJECT_NAME    = ARIANE 40 R/B
OBJECT_ID      = 1993-061H
CENTER_NAME    = EARTH
REF_FRAME      = TEME
TIME_SYSTEM    = UTC
MEAN_ELEMENT_THEORY = SGP/SGP4

EPOCH          = 2026-03-18T21:59:18.460032
MEAN_MOTION    = 14.32865674
ECCENTRICITY   = .00096254
INCLINATION    = 98.4898
RA_OF_ASC_NODE = 146.6210
ARG_OF_PERICENTER = 254.5218
MEAN_ANOMALY   = 105.4903

EPHEMERIS_TYPE = 0
CLASSIFICATION_TYPE = U
NORAD_CAT_ID   = 22830
ELEMENT_SET_NO = 999
REV_AT_EPOCH   = 69542
BSTAR          = .83338646E-4
MEAN_MOTION_DOT = .184E-5
MEAN_MOTION_DDOT = 0

CCSDS_OMM_VERS = 2.0
CREATION_DATE  = 
ORIGINATOR     = 

OBJECT_NAME    = COSMOS 2278
OBJECT_ID      = 1994-023A
CENTER_NAME    = EARTH
REF_FRAME      = TEME
TIME_SYSTEM    = UTC
MEAN_ELEMENT_THEORY = SGP/SGP4

EPOCH          = 2026-03-18T15:36:28.295136
MEAN_MOTION    = 14.14379000
ECCENTRICITY   = .00086629
INCLINATION    = 71.0542
RA_OF_ASC_NODE = 156.3525
ARG_OF_PERICENTER = 357.7046
MEAN_ANOMALY   = 2.4035

EPHEMERIS_TYPE = 0
CLASSIFICATION_TYPE = U
NORAD_CAT_ID   = 23087
ELEMENT_SET_NO = 999
REV_AT_EPOCH   = 64607
BSTAR          = -.54533077E-4
MEAN_MOTION_DOT = -.152E-5
MEAN_MOTION_DDOT = 0

CCSDS_OMM_VERS = 2.0
CREATION_DATE  = 
ORIGINATOR     = 

OBJECT_NAME    = SL-16 R/B
OBJECT_ID      = 1994-023B
CENTER_NAME    = EARTH
REF_FRAME      = TEME
TIME_SYSTEM    = UTC
MEAN_ELEMENT_THEORY = SGP/SGP4

EPOCH          = 2026-03-18T21:42:59.853888
MEAN_MOTION    = 14.15010061
ECCENTRICITY   = .00055281
INCLINATION    = 70.9992
RA_OF_ASC_NODE = 51.5324
ARG_OF_PERICENTER = 276.5910
MEAN_ANOMALY   = 83.4583

EPHEMERIS_TYPE = 0
CLASSIFICATION_TYPE = U
NORAD_CAT_ID   = 23088
ELEMENT_SET_NO = 999
REV_AT_EPOCH   = 64739
BSTAR          = .15630676E-4
MEAN_MOTION_DOT = -.17E-6
MEAN_MOTION_DDOT = 0

CCSDS_OMM_VERS = 2.0
CREATION_DATE  = 
ORIGINATOR     = 

OBJECT_NAME    = SL-16 R/B
OBJECT_ID      = 1994-074B
CENTER_NAME    = EARTH
REF_FRAME      = TEME
TIME_SYSTEM    = UTC
MEAN_ELEMENT_THEORY = SGP/SGP4

EPOCH          = 2026-03-18T21:03:57.280320
MEAN_MOTION    = 14.79418402
ECCENTRICITY   = .00065014
INCLINATION    = 97.7096
RA_OF_ASC_NODE = 108.3231
ARG_OF_PERICENTER = 178.6423
MEAN_ANOMALY   = 355.0685

EPHEMERIS_TYPE = 0
CLASSIFICATION_TYPE = U
NORAD_CAT_ID   = 23343
ELEMENT_SET_NO = 999
REV_AT_EPOCH   = 68860
BSTAR          = .61662382E-4
MEAN_MOTION_DOT = .411E-5
MEAN_MOTION_DDOT = 0

CCSDS_OMM_VERS = 2.0
CREATION_DATE  = 
ORIGINATOR     = 

OBJECT_NAME    = SL-16 R/B
OBJECT_ID      = 1994-077B
CENTER_NAME    = EARTH
REF_FRAME      = TEME
TIME_SYSTEM    = UTC
MEAN_ELEMENT_THEORY = SGP/SGP4

EPOCH          = 2026-03-18T22:53:07.482048
MEAN_MOTION    = 14.15565276
ECCENTRICITY   = .00025573
INCLINATION    = 70.9850
RA_OF_ASC_NODE = 333.0014
ARG_OF_PERICENTER = 201.1657
MEAN_ANOMALY   = 158.9360

EPHEMERIS_TYPE = 0
CLASSIFICATION_TYPE = U
NORAD_CAT_ID   = 23405
ELEMENT_SET_NO = 999
REV_AT_EPOCH   = 61754
BSTAR          = .18334486E-3
MEAN_MOTION_DOT = .311E-5
MEAN_MOTION_DDOT = 0

CCSDS_OMM_VERS = 2.0
CREATION_DATE  = 
ORIGINATOR     = 

OBJECT_NAME    = ARIANE 40+ R/B
OBJECT_ID      = 1995-021B
CENTER_NAME    = EARTH
REF_FRAME      = TEME
TIME_SYSTEM    = UTC
MEAN_ELEMENT_THEORY = SGP/SGP4

EPOCH          = 2026-03-18T22:37:00.521760
MEAN_MOTION    = 14.39778900
ECCENTRICITY   = .00079242
INCLINATION    = 98.4480
RA_OF_ASC_NODE = 149.2989
ARG_OF_PERICENTER = 112.3172
MEAN_ANOMALY   = 60.9672

EPHEMERIS_TYPE = 0
CLASSIFICATION_TYPE = U
NORAD_CAT_ID   = 23561
ELEMENT_SET_NO = 999
REV_AT_EPOCH   = 62057
BSTAR          = .93132782E-4
MEAN_MOTION_DOT = .249E-5
MEAN_MOTION_DDOT = 0

CCSDS_OMM_VERS = 2.0
CREATION_DATE  = 
ORIGINATOR     = 

OBJECT_NAME    = SL-16 R/B
OBJECT_ID      = 1995-058B
CENTER_NAME    = EARTH
REF_FRAME      = TEME
TIME_SYSTEM    = UTC
MEAN_ELEMENT_THEORY = SGP/SGP4

EPOCH          = 2026-03-18T23:03:49.396896
MEAN_MOTION    = 14.15500522
ECCENTRICITY   = .00103268
INCLINATION    = 71.0221
RA_OF_ASC_NODE = 160.7913
ARG_OF_PERICENTER = 108.9416
MEAN_ANOMALY   = 251.2827

EPHEMERIS_TYPE = 0
CLASSIFICATION_TYPE = U
NORAD_CAT_ID   = 23705
ELEMENT_SET_NO = 999
REV_AT_EPOCH   = 56916
BSTAR          = .62412904E-4
MEAN_MOTION_DOT = .75E-6
MEAN_MOTION_DDOT = 0

CCSDS_OMM_VERS = 2.0
CREATION_DATE  = 
ORIGINATOR     = 

OBJECT_NAME    = SL-16 R/B
OBJECT_ID      = 1996-051B
CENTER_NAME    = EARTH
REF_FRAME      = TEME
TIME_SYSTEM    = UTC
MEAN_ELEMENT_THEORY = SGP/SGP4

EPOCH          = 2026-03-18T22:44:52.176768
MEAN_MOTION    = 14.12418102
ECCENTRICITY   = .00142926
INCLINATION    = 70.7598
RA_OF_ASC_NODE = 155.6444
ARG_OF_PERICENTER = 133.5293
MEAN_ANOMALY   = 226.7017

EPHEMERIS_TYPE = 0
CLASSIFICATION_TYPE = U
NORAD_CAT_ID   = 24298
ELEMENT_SET_NO = 999
REV_AT_EPOCH   = 52295
BSTAR          = .7681226E-4
MEAN_MOTION_DOT = .93E-6
MEAN_MOTION_DDOT = 0

CCSDS_OMM_VERS = 2.0
CREATION_DATE  = 
ORIGINATOR     = 

OBJECT_NAME    = ORBVIEW 2 (SEASTAR)
OBJECT_ID      = 1997-037A
CENTER_NAME    = EARTH
REF_FRAME      = TEME
TIME_SYSTEM    = UTC
MEAN_ELEMENT_THEORY = SGP/SGP4

EPOCH          = 2026-03-18T21:32:10.776480
MEAN_MOTION    = 14.35501319
ECCENTRICITY   = .00028226
INCLINATION    = 98.8583
RA_OF_ASC_NODE = 242.4538
ARG_OF_PERICENTER = 52.7185
MEAN_ANOMALY   = 307.4257

EPHEMERIS_TYPE = 0
CLASSIFICATION_TYPE = U
NORAD_CAT_ID   = 24883
ELEMENT_SET_NO = 999
REV_AT_EPOCH   = 50979
BSTAR          = .93736635E-4
MEAN_MOTION_DOT = .223E-5
MEAN_MOTION_DDOT = 0

CCSDS_OMM_VERS = 2.0
CREATION_DATE  = 
ORIGINATOR     = 

OBJECT_NAME    = SL-16 R/B
OBJECT_ID      = 1998-043G
CENTER_NAME    = EARTH
REF_FRAME      = TEME
TIME_SYSTEM    = UTC
MEAN_ELEMENT_THEORY = SGP/SGP4

EPOCH          = 2026-03-18T10:21:51.350976
MEAN_MOTION    = 14.26051804
ECCENTRICITY   = .000976
INCLINATION    = 98.8269
RA_OF_ASC_NODE = 30.8579
ARG_OF_PERICENTER = 355.6941
MEAN_ANOMALY   = 4.4153

EPHEMERIS_TYPE = 0
CLASSIFICATION_TYPE = U
NORAD_CAT_ID   = 25400
ELEMENT_SET_NO = 999
REV_AT_EPOCH   = 44023
BSTAR          = .41473957E-4
MEAN_MOTION_DOT = .54E-6
MEAN_MOTION_DDOT = 0

